NORAD_CAT_ID,OBJECT_NAME,OBJECT_TYPE,EPOCH,MEAN_MOTION,ECCENTRICITY,INCLINATION,RA_OF_ASC_NODE,ARG_OF_PERICENTER,MEAN_ANOMALY,BSTAR,MEAN_MOTION_DOT,MEAN_MOTION_DDOT,TLE_LINE0,TLE_LINE1,TLE_LINE2,SEMIMAJOR_AXIS,PERIOD,APOGEE,PERIGEE,DECAYED
53292.0,STARLINK-4159,PAYLOAD,2023-03-10 05:41:06,15.08843942,9.59e-05,53.2184,61.7993,100.935,259.175,0.00015647,2.204e-05,0.0,0 STARLINK-4159,1 53292U 22086BC  23069.23687784  .00002204  00000-0  15647-3 0  9998,2 53292  53.2184  61.7993 0000959 100.9350 259.1750 15.08843942 35654,6917.868,95.437,540.397,539.07,0.0
53292.0,STARLINK-4159,PAYLOAD,2023-03-10 08:51:51,15.08862192,0.0001369,53.2188,61.2046,94.2198,265.8951,0.00032946,4.962e-05,0.0,0 STARLINK-4159,1 53292U 22086BC  23069.36934856  .00004962  00000-0  32946-3 0  9991,2 53292  53.2188  61.2046 0001369  94.2198 265.8951 15.08862192 35670,6917.813,95.436,540.625,538.731,0.0
53292.0,STARLINK-4159,PAYLOAD,2023-03-10 16:48:48,15.08835747,0.0001584,53.219,59.7184,78.3303,281.7867,-6.429e-05,-1.311e-05,0.0,0 STARLINK-4159,1 53292U 22086BC  23069.70056276 -.00001311  00000-0 -64290-4 0  9995,2 53292  53.2190  59.7184 0001584  78.3303 281.7867 15.08835747 35723,6917.893,95.438,540.854,538.663,0.0
53292.0,STARLINK-4159,PAYLOAD,2023-03-11 10:18:02,15.08845639,0.0001161,53.2192,56.4451,91.4068,268.7058,0.00017146,2.442e-05,0.0,0 STARLINK-4159,1 53292U 22086BC  23070.42919774  .00002442  00000-0  17146-3 0  9998,2 53292  53.2192  56.4451 0001161  91.4068 268.7058 15.08845639 35831,6917.863,95.437,540.531,538.925,0.0
53292.0,STARLINK-4159,PAYLOAD,2023-03-11 23:01:08,15.08828762,9.28e-05,53.2179,54.0691,86.7105,273.3994,3.4663e-06,-2.33e-06,0.0,0 STARLINK-4159,1 53292U 22086BC  23070.95912818 -.00000233  00000-0  34663-5 0  9990,2 53292  53.2179  54.0691 0000928  86.7105 273.3994 15.08828762 35913,6917.915,95.438,540.422,539.138,0.0
53292.0,STARLINK-4159,PAYLOAD,2023-03-12 08:33:27,15.08843268,0.0001508,53.2163,52.2844,89.5992,270.5173,2.4549e-05,1.03e-06,0.0,0 STARLINK-4159,1 53292U 22086BC  23071.35656442  .00000103  00000-0  24549-4 0  9999,2 53292  53.2163  52.2844 0001508  89.5992 270.5173 15.08843268 35978,6917.87,95.437,540.779,538.692,0.0
53292.0,STARLINK-4159,PAYLOAD,2023-03-12 22:51:55,15.08846004,0.0001243,53.2178,49.6065,104.9123,255.2007,0.00039158,5.951e-05,0.0,0 STARLINK-4159,1 53292U 22086BC  23071.95272300  .00005951  00000-0  39158-3 0  9999,2 53292  53.2178  49.6065 0001243 104.9123 255.2007 15.08846004 36229,6917.862,95.437,540.587,538.867,0.0
53292.0,STARLINK-4159,PAYLOAD,2023-03-13 08:24:13,15.08863688,0.000131,53.2185,47.8227,103.4922,256.6216,0.00050908,7.829e-05,0.0,0 STARLINK-4159,1 53292U 22086BC  23072.35015446  .00007829  00000-0  50908-3 0  9992,2 53292  53.2185  47.8227 0001310 103.4922 256.6216 15.08863688 36126,6917.808,95.436,540.579,538.767,0.0
53292.0,STARLINK-4159,PAYLOAD,2023-03-13 22:42:42,15.08836789,0.0001499,53.2172,45.1452,110.9882,249.1271,-9.0242e-05,-1.724e-05,0.0,0 STARLINK-4159,1 53292U 22086BC  23072.94632345 -.00001724  00000-0 -90242-4 0  9996,2 53292  53.2172  45.1452 0001499 110.9882 249.1271 15.08836789 36376,6917.89,95.438,540.792,538.718,0.0
53292.0,STARLINK-4159,PAYLOAD,2023-03-14 05:04:15,15.08834496,0.0001296,53.2185,43.9549,115.1696,244.9431,-0.00010746,-1.997e-05,0.0,0 STARLINK-4159,1 53292U 22086BC  23073.21128558 -.00001997  00000-0 -10746-3 0  9995,2 53292  53.2185  43.9549 0001296 115.1696 244.9431 15.08834496 36259,6917.897,95.438,540.659,538.866,0.0
53292.0,STARLINK-4159,PAYLOAD,2023-03-14 08:15:01,15.08835982,0.0001164,53.2189,43.3624,102.9927,257.1195,-5.5549e-05,-1.172e-05,0.0,0 STARLINK-4159,1 53292U 22086BC  23073.34376651 -.00001172  00000-0 -55549-4 0  9994,2 53292  53.2189  43.3624 0001164 102.9927 257.1195 15.08835982 36430,6917.893,95.438,540.563,538.952,0.0
53292.0,STARLINK-4159,PAYLOAD,2023-03-14 14:36:33,15.08842921,0.0001075,53.2181,42.1744,96.2676,263.8439,0.00010917,1.45e-05,0.0,0 STARLINK-4159,1 53292U 22086BC  23073.60872495  .00001450  00000-0  10917-3 0  9996,2 53292  53.2181  42.1744 0001075  96.2676 263.8439 15.08842921 36479,6917.871,95.437,540.48,538.993,0.0
53292.0,STARLINK-4159,PAYLOAD,2023-03-15 04:55:01,15.08871255,9.43e-05,53.2165,39.4998,91.1198,268.9902,0.0013118,0.00020669,0.0,0 STARLINK-4159,1 53292U 22086BC  23074.20487969  .00020669  00000-0  13118-2 0  9999,2 53292  53.2165  39.4998 0000943  91.1198 268.9902 15.08871255 36403,6917.785,95.436,540.302,538.998,0.0
53292.0,STARLINK-4159,PAYLOAD,2023-03-15 20:48:52,15.08849993,0.0001885,53.2171,36.5283,107.434,252.6858,-3.8487e-05,-9.01e-06,0.0,0 STARLINK-4159,1 53292U 22086BC  23074.86727832 -.00000901  00000-0 -38487-4 0  9994,2 53292  53.2171  36.5283 0001885 107.4340 252.6858 15.08849993 36506,6917.85,95.437,541.019,538.411,0.0
53292.0,STARLINK-4159,PAYLOAD,2023-03-16 03:10:25,15.08843146,0.0001155,53.2174,35.3374,83.7974,276.315,3.6355e-05,2.91e-06,0.0,0 STARLINK-4159,1 53292U 22086BC  23075.13224132  .00000291  00000-0  36355-4 0  9992,2 53292  53.2174  35.3374 0001155  83.7974 276.3150 15.08843146 36542,6917.871,95.437,540.535,538.937,0.0
53292.0,STARLINK-4159,PAYLOAD,2023-03-16 06:21:11,15.08858944,0.0001423,53.2173,34.7378,98.8601,261.2553,0.00044995,6.884e-05,0.0,0 STARLINK-4159,1 53292U 22086BC  23075.26471808  .00006884  00000-0  44995-3 0  9992,2 53292  53.2173  34.7378 0001423  98.8601 261.2553 15.08858944 36564,6917.822,95.436,540.672,538.703,0.0
53292.0,STARLINK-4159,PAYLOAD,2023-03-16 20:39:40,15.08825285,0.0001585,53.2159,32.0655,64.4525,295.6631,-0.00022448,-3.857e-05,0.0,0 STARLINK-4159,1 53292U 22086BC  23075.86088693 -.00003857  00000-0 -22448-3 0  9992,2 53292  53.2159  32.0655 0001585  64.4525 295.6631 15.08825285 36818,6917.925,95.438,540.887,538.694,0.0
53292.0,STARLINK-4159,PAYLOAD,2023-03-16 22:15:03,15.08828564,0.0001599,53.2162,31.768,85.7985,274.319,0.00021091,3.069e-05,0.0,0 STARLINK-4159,1 53292U 22086BC  23075.92712606  .00003069  00000-0  21091-3 0  9993,2 53292  53.2162  31.7680 0001599  85.7985 274.3190 15.08828564 36667,6917.915,95.438,540.887,538.674,0.0
53292.0,STARLINK-4159,PAYLOAD,2023-03-17 14:08:55,15.08836042,0.0001727,53.2166,28.7928,89.6799,270.4391,0.00095102,0.00014878,0.0,0 STARLINK-4159,1 53292U 22086BC  23076.58953054  .00014878  00000-0  95102-3 0  9994,2 53292  53.2166  28.7928 0001727  89.6799 270.4391 15.08836042 36920,6917.892,95.438,540.952,538.563,0.0
53292.0,STARLINK-4159,PAYLOAD,2023-03-18 02:52:00,15.08851268,0.0001735,53.2158,26.4128,94.3458,265.7732,0.00094622,0.00014808,0.0,0 STARLINK-4159,1 53292U 22086BC  23077.11944889  .00014808  00000-0  94622-3 0  9999,2 53292  53.2158  26.4128 0001735  94.3458 265.7732 15.08851268 36846,6917.846,95.437,540.911,538.511,0.0
53292.0,STARLINK-4159,PAYLOAD,2023-03-18 13:59:42,15.08842243,0.000199,53.2182,24.3336,85.5699,274.552,0.00035245,5.326e-05,0.0,0 STARLINK-4159,1 53292U 22086BC  23077.58313108  .00005326  00000-0  35245-3 0  9995,2 53292  53.2182  24.3336 0001990  85.5699 274.5520 15.08842243 36917,6917.874,95.437,541.115,538.362,0.0
53292.0,STARLINK-4159,PAYLOAD,2023-03-19 02:42:46,15.08864722,0.0001448,53.2169,21.9537,94.4782,265.6376,0.0012818,0.00020184,0.0,0 STARLINK-4159,1 53292U 22086BC  23078.11304227  .00020184  00000-0  12818-2 0  9996,2 53292  53.2169  21.9537 0001448  94.4782 265.6376 15.08864722 36992,6917.805,95.436,540.672,538.668,0.0
53292.0,STARLINK-4159,PAYLOAD,2023-03-19 05:53:32,15.08880084,0.0001686,53.2169,21.3586,93.9386,266.1799,0.0017186,0.000272,0.0,0 STARLINK-4159,1 53292U 22086BC  23078.24551838  .00027200  00000-0  17186-2 0  9991,2 53292  53.2169  21.3586 0001686  93.9386 266.1799 15.08880084 37016,6917.758,95.435,540.789,538.457,0.0
53292.0,STARLINK-4159,PAYLOAD,2023-03-19 20:12:01,15.08859867,0.0001676,53.2179,18.6829,83.5899,276.5284,0.0011934,0.00018766,0.0,0 STARLINK-4159,1 53292U 22086BC  23078.84167992  .00018766  00000-0  11934-2 0  9993,2 53292  53.2179  18.6829 0001676  83.5899 276.5284 15.08859867 37108,6917.82,95.436,540.844,538.525,0.0
53292.0,STARLINK-4159,PAYLOAD,2023-03-20 05:44:20,15.08849206,0.0001285,53.2178,16.8985,66.0943,294.0184,0.0021447,0.00034019,0.0,0 STARLINK-4159,1 53292U 22086BC  23079.23912106  .00034019  00000-0  21447-2 0  9991,2 53292  53.2178  16.8985 0001285  66.0943 294.0184 15.08849206 37168,6917.852,95.437,540.606,538.828,0.0
53292.0,STARLINK-4159,PAYLOAD,2023-03-20 07:19:43,15.0885528,0.0001327,53.218,16.6015,68.2966,291.8168,0.0023801,0.00037811,0.0,0 STARLINK-4159,1 53292U 22086BC  23079.30536054  .00037811  00000-0  23801-2 0  9992,2 53292  53.2180  16.6015 0001327  68.2966 291.8168 15.08855280 37334,6917.834,95.437,540.617,538.781,0.0
53292.0,STARLINK-4159,PAYLOAD,2023-03-21 05:35:07,15.08870894,0.0001188,53.218,12.438,77.4212,282.6913,0.0027319,0.00043496,0.0,0 STARLINK-4159,1 53292U 22086BC  23080.23272447  .00043496  00000-0  27319-2 0  9993,2 53292  53.2180  12.4380 0001188  77.4212 282.6913 15.08870894 37316,6917.786,95.436,540.473,538.829,0.0
53292.0,STARLINK-4159,PAYLOAD,2023-03-22 03:50:32,15.08845586,8.11e-05,53.2182,8.2764,97.828,262.2804,0.0018643,0.00029511,0.0,0 STARLINK-4159,1 53292U 22086BC  23081.16009446  .00029511  00000-0  18643-2 0  9995,2 53292  53.2182   8.2764 0000811  97.8280 262.2804 15.08845586 37458,6917.863,95.437,540.289,539.167,0.0
53292.0,STARLINK-4159,PAYLOAD,2023-03-22 07:01:18,15.08857516,7.93e-05,53.2181,7.6816,99.2062,260.902,0.0020367,0.0003229,0.0,0 STARLINK-4159,1 53292U 22086BC  23081.29257292  .00032290  00000-0  20367-2 0  9997,2 53292  53.2181   7.6816 0000793  99.2062 260.9020 15.08857516 37632,6917.827,95.436,540.24,539.143,0.0
53292.0,STARLINK-4159,PAYLOAD,2023-03-23 03:41:19,15.08858074,9.28e-05,53.2166,3.8151,81.5661,278.5436,0.0012613,0.00019852,0.0,0 STARLINK-4159,1 53292U 22086BC  23082.15369315  .00019852  00000-0  12613-2 0  9997,2 53292  53.2166   3.8151 0000928  81.5661 278.5436 15.08858074 37607,6917.825,95.436,540.332,539.048,0.0
